{
  "type": "FeatureCollection",
  "features": [
    {
      "type": "Feature",
      "geometry": {
        "type": "Point",
        "coordinates": [
          82.02,
          25.02
        ]
      },
      "properties": {
        "id": "H001",
        "name": "Rampur Kalan (DEMONSTRATION)",
        "block": "Block A",
        "population": 1250,
        "households": 250,
        "elevation": 120.5,
        "slope": 15.2,
        "aspect": 180.0,
        "dataset_type": "DEMO / SYNTHETIC DATA"
      }
    },
    {
      "type": "Feature",
      "geometry": {
        "type": "Point",
        "coordinates": [
          82.14513578427703,
          25.029732099910326
        ]
      },
      "properties": {
        "id": "H002",
        "name": "Village 2 (DEMONSTRATION)",
        "block": "Block A",
        "population": 1096,
        "households": 312,
        "elevation": 266.8,
        "slope": 32.5,
        "aspect": 196.6,
        "dataset_type": "DEMO / SYNTHETIC DATA"
      }
    },
    {
      "type": "Feature",
      "geometry": {
        "type": "Point",
        "coordinates": [
          82.04724333050626,
          25.027102935886813
        ]
      },
      "properties": {
        "id": "H003",
        "name": "Village 3 (DEMONSTRATION)",
        "block": "Block B",
        "population": 1987,
        "households": 561,
        "elevation": 244.3,
        "slope": 42.5,
        "aspect": 302.8,
        "dataset_type": "DEMO / SYNTHETIC DATA"
      }
    },
    {
      "type": "Feature",
      "geometry": {
        "type": "Point",
        "coordinates": [
          82.07041066658446,
          24.922104308890937
        ]
      },
      "properties": {
        "id": "H004",
        "name": "Village 4 (DEMONSTRATION)",
        "block": "Block B",
        "population": 1080,
        "households": 429,
        "elevation": 241.4,
        "slope": 30.3,
        "aspect": 236.4,
        "dataset_type": "DEMO / SYNTHETIC DATA"
      }
    },
    {
      "type": "Feature",
      "geometry": {
        "type": "Point",
        "coordinates": [
          82.1358753850984,
          24.986150560287808
        ]
      },
      "properties": {
        "id": "H005",
        "name": "Village 5 (DEMONSTRATION)",
        "block": "Block A",
        "population": 1548,
        "households": 546,
        "elevation": 203.4,
        "slope": 37.6,
        "aspect": 161.5,
        "dataset_type": "DEMO / SYNTHETIC DATA"
      }
    },
    {
      "type": "Feature",
      "geometry": {
        "type": "Point",
        "coordinates": [
          82.064877299545,
          25.0493442389154
        ]
      },
      "properties": {
        "id": "H006",
        "name": "Village 6 (DEMONSTRATION)",
        "block": "Block C",
        "population": 1170,
        "households": 332,
        "elevation": 200.9,
        "slope": 27.0,
        "aspect": 20.1,
        "dataset_type": "DEMO / SYNTHETIC DATA"
      }
    },
    {
      "type": "Feature",
      "geometry": {
        "type": "Point",
        "coordinates": [
          81.9143469777182,
          24.873115785777156
        ]
      },
      "properties": {
        "id": "H007",
        "name": "Village 7 (DEMONSTRATION)",
        "block": "Block C",
        "population": 384,
        "households": 72,
        "elevation": 219.3,
        "slope": 30.7,
        "aspect": 26.0,
        "dataset_type": "DEMO / SYNTHETIC DATA"
      }
    },
    {
      "type": "Feature",
      "geometry": {
        "type": "Point",
        "coordinates": [
          81.9837065276042,
          25.064899511974204
        ]
      },
      "properties": {
        "id": "H008",
        "name": "Village 8 (DEMONSTRATION)",
        "block": "Block C",
        "population": 2521,
        "households": 342,
        "elevation": 201.7,
        "slope": 13.6,
        "aspect": 31.1,
        "dataset_type": "DEMO / SYNTHETIC DATA"
      }
    },
    {
      "type": "Feature",
      "geometry": {
        "type": "Point",
        "coordinates": [
          82.01528953112017,
          24.881351978089572
        ]
      },
      "properties": {
        "id": "H009",
        "name": "Village 9 (DEMONSTRATION)",
        "block": "Block B",
        "population": 2738,
        "households": 564,
        "elevation": 275.3,
        "slope": 42.1,
        "aspect": 96.4,
        "dataset_type": "DEMO / SYNTHETIC DATA"
      }
    },
    {
      "type": "Feature",
      "geometry": {
        "type": "Point",
        "coordinates": [
          81.86071960689665,
          24.907579063429946
        ]
      },
      "properties": {
        "id": "H010",
        "name": "Village 10 (DEMONSTRATION)",
        "block": "Block A",
        "population": 2458,
        "households": 179,
        "elevation": 193.8,
        "slope": 16.9,
        "aspect": 344.2,
        "dataset_type": "DEMO / SYNTHETIC DATA"
      }
    },
    {
      "type": "Feature",
      "geometry": {
        "type": "Point",
        "coordinates": [
          82.07964843073512,
          25.02545041781073
        ]
      },
      "properties": {
        "id": "H011",
        "name": "Village 11 (DEMONSTRATION)",
        "block": "Block C",
        "population": 319,
        "households": 546,
        "elevation": 286.2,
        "slope": 17.3,
        "aspect": 175.1,
        "dataset_type": "DEMO / SYNTHETIC DATA"
      }
    },
    {
      "type": "Feature",
      "geometry": {
        "type": "Point",
        "coordinates": [
          82.05439518043578,
          25.070887822136555
        ]
      },
      "properties": {
        "id": "H012",
        "name": "Village 12 (DEMONSTRATION)",
        "block": "Block C",
        "population": 1059,
        "households": 399,
        "elevation": 164.5,
        "slope": 14.5,
        "aspect": 149.9,
        "dataset_type": "DEMO / SYNTHETIC DATA"
      }
    },
    {
      "type": "Feature",
      "geometry": {
        "type": "Point",
        "coordinates": [
          81.97362138069768,
          24.88879884503535
        ]
      },
      "properties": {
        "id": "H013",
        "name": "Village 13 (DEMONSTRATION)",
        "block": "Block A",
        "population": 321,
        "households": 206,
        "elevation": 146.1,
        "slope": 19.7,
        "aspect": 28.8,
        "dataset_type": "DEMO / SYNTHETIC DATA"
      }
    },
    {
      "type": "Feature",
      "geometry": {
        "type": "Point",
        "coordinates": [
          82.07765647625405,
          25.04257216030402
        ]
      },
      "properties": {
        "id": "H014",
        "name": "Village 14 (DEMONSTRATION)",
        "block": "Block B",
        "population": 1504,
        "households": 401,
        "elevation": 217.1,
        "slope": 3.5,
        "aspect": 37.5,
        "dataset_type": "DEMO / SYNTHETIC DATA"
      }
    },
    {
      "type": "Feature",
      "geometry": {
        "type": "Point",
        "coordinates": [
          81.96443289346011,
          25.123063051185117
        ]
      },
      "properties": {
        "id": "H015",
        "name": "Village 15 (DEMONSTRATION)",
        "block": "Block A",
        "population": 1766,
        "households": 577,
        "elevation": 249.5,
        "slope": 27.5,
        "aspect": 195.2,
        "dataset_type": "DEMO / SYNTHETIC DATA"
      }
    },
    {
      "type": "Feature",
      "geometry": {
        "type": "Point",
        "coordinates": [
          81.86531175516929,
          24.987115924650567
        ]
      },
      "properties": {
        "id": "H016",
        "name": "Village 16 (DEMONSTRATION)",
        "block": "Block A",
        "population": 1234,
        "households": 155,
        "elevation": 157.4,
        "slope": 9.7,
        "aspect": 214.1,
        "dataset_type": "DEMO / SYNTHETIC DATA"
      }
    },
    {
      "type": "Feature",
      "geometry": {
        "type": "Point",
        "coordinates": [
          81.92796315164598,
          25.03856587741467
        ]
      },
      "properties": {
        "id": "H017",
        "name": "Village 17 (DEMONSTRATION)",
        "block": "Block A",
        "population": 2099,
        "households": 87,
        "elevation": 234.7,
        "slope": 26.8,
        "aspect": 303.3,
        "dataset_type": "DEMO / SYNTHETIC DATA"
      }
    },
    {
      "type": "Feature",
      "geometry": {
        "type": "Point",
        "coordinates": [
          81.91371109786981,
          24.89031376408153
        ]
      },
      "properties": {
        "id": "H018",
        "name": "Village 18 (DEMONSTRATION)",
        "block": "Block B",
        "population": 2948,
        "households": 98,
        "elevation": 242.2,
        "slope": 22.7,
        "aspect": 142.9,
        "dataset_type": "DEMO / SYNTHETIC DATA"
      }
    },
    {
      "type": "Feature",
      "geometry": {
        "type": "Point",
        "coordinates": [
          81.91465566942401,
          25.131984667585986
        ]
      },
      "properties": {
        "id": "H019",
        "name": "Village 19 (DEMONSTRATION)",
        "block": "Block B",
        "population": 528,
        "households": 209,
        "elevation": 106.9,
        "slope": 40.8,
        "aspect": 178.7,
        "dataset_type": "DEMO / SYNTHETIC DATA"
      }
    },
    {
      "type": "Feature",
      "geometry": {
        "type": "Point",
        "coordinates": [
          81.96490903316044,
          24.999816446174965
        ]
      },
      "properties": {
        "id": "H020",
        "name": "Village 20 (DEMONSTRATION)",
        "block": "Block B",
        "population": 920,
        "households": 196,
        "elevation": 113.8,
        "slope": 12.8,
        "aspect": 33.2,
        "dataset_type": "DEMO / SYNTHETIC DATA"
      }
    }
  ]
}